[
  {
    "OBJECT_NAME": "STARLINK-34515",
    "OBJECT_ID": "25142S",
    "EPOCH": "2025-11-11T05:50:30.803712",
    "MEAN_MOTION": 14.95908949,
    "ECCENTRICITY": 0.0002546,
    "INCLINATION": 70.0014,
    "RA_OF_ASC_NODE": 252.4796,
    "ARG_OF_PERICENTER": 269.5428,
    "MEAN_ANOMALY": 90.5438,
    "EPHEMERIS_TYPE": 0,
    "CLASSIFICATION_TYPE": "U",
    "NORAD_CAT_ID": 64712,
    "ELEMENT_SET_NO": 999,
    "REV_AT_EPOCH": 2173,
    "BSTAR": 0.00020605000000000002,
    "MEAN_MOTION_DOT": 2.22e-05,
    "MEAN_MOTION_DDOT": 0.0,
    "TLE_LINE1": "1 64712U 25142S   25315.24341208  .00002220  00000+0  20605-3 0  9995",
    "TLE_LINE2": "2 64712  70.0014 252.4796 0002546 269.5428  90.5438 14.95908949 21732",
    "COMMENT": "Grouped by shell and plane from TLE"
  },
  {
    "OBJECT_NAME": "STARLINK-34583",
    "OBJECT_ID": "25142T",
    "EPOCH": "2025-11-11T05:42:25.292736",
    "MEAN_MOTION": 14.95913963,
    "ECCENTRICITY": 0.0002219,
    "INCLINATION": 70.0053,
    "RA_OF_ASC_NODE": 252.4589,
    "ARG_OF_PERICENTER": 311.4743,
    "MEAN_ANOMALY": 48.6224,
    "EPHEMERIS_TYPE": 0,
    "CLASSIFICATION_TYPE": "U",
    "NORAD_CAT_ID": 64713,
    "ELEMENT_SET_NO": 999,
    "REV_AT_EPOCH": 2173,
    "BSTAR": 0.00073646,
    "MEAN_MOTION_DOT": 8.177e-05,
    "MEAN_MOTION_DDOT": 0.0,
    "TLE_LINE1": "1 64713U 25142T   25315.23779274  .00008177  00000+0  73646-3 0  9993",
    "TLE_LINE2": "2 64713  70.0053 252.4589 0002219 311.4743  48.6224 14.95913963 21739",
    "COMMENT": "Grouped by shell and plane from TLE"
  },
  {
    "OBJECT_NAME": "STARLINK-34574",
    "OBJECT_ID": "25142U",
    "EPOCH": "2025-11-11T06:52:20.076672",
    "MEAN_MOTION": 14.98352643,
    "ECCENTRICITY": 0.0002577,
    "INCLINATION": 70.0024,
    "RA_OF_ASC_NODE": 253.04,
    "ARG_OF_PERICENTER": 271.7238,
    "MEAN_ANOMALY": 88.3626,
    "EPHEMERIS_TYPE": 0,
    "CLASSIFICATION_TYPE": "U",
    "NORAD_CAT_ID": 64714,
    "ELEMENT_SET_NO": 999,
    "REV_AT_EPOCH": 2175,
    "BSTAR": 0.0010736,
    "MEAN_MOTION_DOT": 0.00012748,
    "MEAN_MOTION_DDOT": 0.0,
    "TLE_LINE1": "1 64714U 25142U   25315.28634348  .00012748  00000+0  10736-2 0  9990",
    "TLE_LINE2": "2 64714  70.0024 253.0400 0002577 271.7238  88.3626 14.98352643 21755",
    "COMMENT": "Grouped by shell and plane from TLE"
  },
  {
    "OBJECT_NAME": "STARLINK-34533",
    "OBJECT_ID": "25142V",
    "EPOCH": "2025-11-11T06:34:03.866304",
    "MEAN_MOTION": 14.98346136,
    "ECCENTRICITY": 0.0002633,
    "INCLINATION": 70.0022,
    "RA_OF_ASC_NODE": 253.0004,
    "ARG_OF_PERICENTER": 279.3746,
    "MEAN_ANOMALY": 80.7115,
    "EPHEMERIS_TYPE": 0,
    "CLASSIFICATION_TYPE": "U",
    "NORAD_CAT_ID": 64715,
    "ELEMENT_SET_NO": 999,
    "REV_AT_EPOCH": 2172,
    "BSTAR": 0.00066613,
    "MEAN_MOTION_DOT": 7.867e-05,
    "MEAN_MOTION_DDOT": 0.0,
    "TLE_LINE1": "1 64715U 25142V   25315.27365586  .00007867  00000+0  66613-3 0  9997",
    "TLE_LINE2": "2 64715  70.0022 253.0004 0002633 279.3746  80.7115 14.98346136 21721",
    "COMMENT": "Grouped by shell and plane from TLE"
  },
  {
    "OBJECT_NAME": "STARLINK-34548",
    "OBJECT_ID": "25142W",
    "EPOCH": "2025-11-11T06:10:00.913728",
    "MEAN_MOTION": 14.98333878,
    "ECCENTRICITY": 0.0002789,
    "INCLINATION": 70.0024,
    "RA_OF_ASC_NODE": 252.9424,
    "ARG_OF_PERICENTER": 265.8448,
    "MEAN_ANOMALY": 94.2393,
    "EPHEMERIS_TYPE": 0,
    "CLASSIFICATION_TYPE": "U",
    "NORAD_CAT_ID": 64716,
    "ELEMENT_SET_NO": 999,
    "REV_AT_EPOCH": 2172,
    "BSTAR": 0.00023590000000000001,
    "MEAN_MOTION_DOT": 2.723e-05,
    "MEAN_MOTION_DDOT": 0.0,
    "TLE_LINE1": "1 64716U 25142W   25315.25695502  .00002723  00000+0  23590-3 0  9993",
    "TLE_LINE2": "2 64716  70.0024 252.9424 0002789 265.8448  94.2393 14.98333878 21726",
    "COMMENT": "Grouped by shell and plane from TLE"
  },
  {
    "OBJECT_NAME": "STARLINK-34568",
    "OBJECT_ID": "25142X",
    "EPOCH": "2025-11-11T06:46:05.126592",
    "MEAN_MOTION": 14.98334053,
    "ECCENTRICITY": 0.0002541,
    "INCLINATION": 70.003,
    "RA_OF_ASC_NODE": 253.0291,
    "ARG_OF_PERICENTER": 266.7673,
    "MEAN_ANOMALY": 93.3195,
    "EPHEMERIS_TYPE": 0,
    "CLASSIFICATION_TYPE": "U",
    "NORAD_CAT_ID": 64717,
    "ELEMENT_SET_NO": 999,
    "REV_AT_EPOCH": 2175,
    "BSTAR": 0.0005327,
    "MEAN_MOTION_DOT": 6.269e-05,
    "MEAN_MOTION_DDOT": 0.0,
    "TLE_LINE1": "1 64717U 25142X   25315.28200378  .00006269  00000+0  53270-3 0  9997",
    "TLE_LINE2": "2 64717  70.0030 253.0291 0002541 266.7673  93.3195 14.98334053 21753",
    "COMMENT": "Grouped by shell and plane from TLE"
  },
  {
    "OBJECT_NAME": "STARLINK-34546",
    "OBJECT_ID": "25142Y",
    "EPOCH": "2025-11-11T05:58:01.773696",
    "MEAN_MOTION": 14.98339078,
    "ECCENTRICITY": 0.0003033,
    "INCLINATION": 70.0014,
    "RA_OF_ASC_NODE": 252.9113,
    "ARG_OF_PERICENTER": 270.9143,
    "MEAN_ANOMALY": 89.1668,
    "EPHEMERIS_TYPE": 0,
    "CLASSIFICATION_TYPE": "U",
    "NORAD_CAT_ID": 64718,
    "ELEMENT_SET_NO": 999,
    "REV_AT_EPOCH": 2191,
    "BSTAR": 0.0013659,
    "MEAN_MOTION_DOT": 0.00016247,
    "MEAN_MOTION_DDOT": 0.0,
    "TLE_LINE1": "1 64718U 25142Y   25315.24863164  .00016247  00000+0  13659-2 0  9995",
    "TLE_LINE2": "2 64718  70.0014 252.9113 0003033 270.9143  89.1668 14.98339078 21911",
    "COMMENT": "Grouped by shell and plane from TLE"
  },
  {
    "OBJECT_NAME": "STARLINK-34577",
    "OBJECT_ID": "25142Z",
    "EPOCH": "2025-11-11T05:24:32.270400",
    "MEAN_MOTION": 14.95926197,
    "ECCENTRICITY": 0.0002786,
    "INCLINATION": 70.002,
    "RA_OF_ASC_NODE": 252.0181,
    "ARG_OF_PERICENTER": 269.4963,
    "MEAN_ANOMALY": 90.5876,
    "EPHEMERIS_TYPE": 0,
    "CLASSIFICATION_TYPE": "U",
    "NORAD_CAT_ID": 64719,
    "ELEMENT_SET_NO": 999,
    "REV_AT_EPOCH": 2177,
    "BSTAR": 0.00092467,
    "MEAN_MOTION_DOT": 0.00010296,
    "MEAN_MOTION_DDOT": 0.0,
    "TLE_LINE1": "1 64719U 25142Z   25315.22537350  .00010296  00000+0  92467-3 0  9992",
    "TLE_LINE2": "2 64719  70.0020 252.0181 0002786 269.4963  90.5876 14.95926197 21774",
    "COMMENT": "Grouped by shell and plane from TLE"
  },
  {
    "OBJECT_NAME": "STARLINK-34572",
    "OBJECT_ID": "25142AA",
    "EPOCH": "2025-11-11T05:03:56.436768",
    "MEAN_MOTION": 14.98344465,
    "ECCENTRICITY": 0.0002388,
    "INCLINATION": 70.0023,
    "RA_OF_ASC_NODE": 253.1818,
    "ARG_OF_PERICENTER": 268.6634,
    "MEAN_ANOMALY": 91.4252,
    "EPHEMERIS_TYPE": 0,
    "CLASSIFICATION_TYPE": "U",
    "NORAD_CAT_ID": 64720,
    "ELEMENT_SET_NO": 999,
    "REV_AT_EPOCH": 2190,
    "BSTAR": 0.00074723,
    "MEAN_MOTION_DOT": 8.837e-05,
    "MEAN_MOTION_DDOT": 0.0,
    "TLE_LINE1": "1 64720U 25142AA  25315.21106987  .00008837  00000+0  74723-3 0  9994",
    "TLE_LINE2": "2 64720  70.0023 253.1818 0002388 268.6634  91.4252 14.98344465 21900",
    "COMMENT": "Grouped by shell and plane from TLE"
  },
  {
    "OBJECT_NAME": "STARLINK-34558",
    "OBJECT_ID": "25142AB",
    "EPOCH": "2025-11-11T06:40:18.943392",
    "MEAN_MOTION": 14.98349347,
    "ECCENTRICITY": 0.0002395,
    "INCLINATION": 70.0025,
    "RA_OF_ASC_NODE": 253.0078,
    "ARG_OF_PERICENTER": 274.4582,
    "MEAN_ANOMALY": 85.6303,
    "EPHEMERIS_TYPE": 0,
    "CLASSIFICATION_TYPE": "U",
    "NORAD_CAT_ID": 64721,
    "ELEMENT_SET_NO": 999,
    "REV_AT_EPOCH": 2172,
    "BSTAR": 0.0010752000000000001,
    "MEAN_MOTION_DOT": 0.00012766,
    "MEAN_MOTION_DDOT": 0.0,
    "TLE_LINE1": "1 64721U 25142AB  25315.27799703  .00012766  00000+0  10752-2 0  9992",
    "TLE_LINE2": "2 64721  70.0025 253.0078 0002395 274.4582  85.6303 14.98349347 21721",
    "COMMENT": "Grouped by shell and plane from TLE"
  }
]